[{"OBJECT_NAME":"STARLINK-31614","OBJECT_ID":"2024-057J","EPOCH":"2026-03-09T08:02:24.496800","MEAN_MOTION":15.27573229,"ECCENTRICITY":0.00010808,"INCLINATION":43.0033,"RA_OF_ASC_NODE":189.1823,"ARG_OF_PERICENTER":252.0232,"MEAN_ANOMALY":108.0502,"EPHEMERIS_TYPE":0,"CLASSIFICATION_TYPE":"U","NORAD_CAT_ID":59328,"ELEMENT_SET_NO":999,"REV_AT_EPOCH":10978,"BSTAR":-1.7321222e-5,"MEAN_MOTION_DOT":-7.39e-6,"MEAN_MOTION_DDOT":0},{"OBJECT_NAME":"KUIPER-00252","OBJECT_ID":"2025-301AA","EPOCH":"2026-03-09T22:00:01.999584","MEAN_MOTION":15.32961042,"ECCENTRICITY":0.00108625,"INCLINATION":51.8682,"RA_OF_ASC_NODE":64.6463,"ARG_OF_PERICENTER":55.9089,"MEAN_ANOMALY":330.8749,"EPHEMERIS_TYPE":0,"CLASSIFICATION_TYPE":"U","NORAD_CAT_ID":67157,"ELEMENT_SET_NO":999,"REV_AT_EPOCH":542,"BSTAR":-0.017504489,"MEAN_MOTION_DOT":-0.00529484,"MEAN_MOTION_DDOT":0}]
